{
  "type": "FeatureCollection",
  "features": [
    {
      "type": "Feature",
      "properties": {
        "norad_id": 66456,
        "name": "STARLINK-35643",
        "group": "last-30-days",
        "lat": 10.852046594622049,
        "lon": -98.60825612404344,
        "alt_km": 442.71737275064424,
        "timestamp": "2025-12-08T23:34:02.738814+00:00",
        "meta_object_name": "STARLINK-35643",
        "meta_object_id": "2025-262A",
        "meta_epoch": "2025-12-08T14:00:01.999872",
        "meta_mean_motion": 15.40656393,
        "meta_eccentricity": 0.00011492,
        "meta_inclination": 43.0002,
        "meta_ra_of_asc_node": 95.5609,
        "meta_arg_of_pericenter": 282.0829,
        "meta_mean_anomaly": 188.2738,
        "meta_ephemeris_type": 0,
        "meta_classification_type": "U",
        "meta_norad_cat_id": 66456,
        "meta_element_set_no": 999,
        "meta_rev_at_epoch": 497,
        "meta_bstar": 0.0010836245,
        "meta_mean_motion_dot": 0.00045164,
        "meta_mean_motion_ddot": 0,
        "tle_line1": "1 66456U 25262A   25342.58335648  .00045164  00000+0  10836-2 0  9991",
        "tle_line2": "2 66456  43.0002  95.5609 0001149 282.0829 188.2738 15.40656393  4977"
      },
      "geometry": {
        "type": "Point",
        "coordinates": [
          -98.60825612404344,
          10.852046594622049
        ]
      }
    },
    {
      "type": "Feature",
      "properties": {
        "norad_id": 66457,
        "name": "STARLINK-35466",
        "group": "last-30-days",
        "lat": -6.057154735509683,
        "lon": -80.25854350038514,
        "alt_km": 445.5395911962514,
        "timestamp": "2025-12-08T23:34:02.738825+00:00",
        "meta_object_name": "STARLINK-35466",
        "meta_object_id": "2025-262B",
        "meta_epoch": "2025-12-08T14:00:01.999872",
        "meta_mean_motion": 15.4193787,
        "meta_eccentricity": 0.00015014,
        "meta_inclination": 43.0004,
        "meta_ra_of_asc_node": 95.5022,
        "meta_arg_of_pericenter": 289.5138,
        "meta_mean_anomaly": 205.0404,
        "meta_ephemeris_type": 0,
        "meta_classification_type": "U",
        "meta_norad_cat_id": 66457,
        "meta_element_set_no": 999,
        "meta_rev_at_epoch": 497,
        "meta_bstar": -0.043900536,
        "meta_mean_motion_dot": -0.01730423,
        "meta_mean_motion_ddot": 0,
        "tle_line1": "1 66457U 25262B   25342.58335648 -.01730423  00000+0 -43901-1 0  9992",
        "tle_line2": "2 66457  43.0004  95.5022 0001501 289.5138 205.0404 15.41937870  4977"
      },
      "geometry": {
        "type": "Point",
        "coordinates": [
          -80.25854350038514,
          -6.057154735509683
        ]
      }
    },
    {
      "type": "Feature",
      "properties": {
        "norad_id": 66458,
        "name": "STARLINK-35684",
        "group": "last-30-days",
        "lat": 2.4699385589974585,
        "lon": -89.42029510639956,
        "alt_km": 443.61612632195465,
        "timestamp": "2025-12-08T23:34:02.738835+00:00",
        "meta_object_name": "STARLINK-35684",
        "meta_object_id": "2025-262C",
        "meta_epoch": "2025-12-08T14:00:01.999872",
        "meta_mean_motion": 15.40619989,
        "meta_eccentricity": 0.00012589,
        "meta_inclination": 43,
        "meta_ra_of_asc_node": 95.5303,
        "meta_arg_of_pericenter": 266.0893,
        "meta_mean_anomaly": 216.7158,
        "meta_ephemeris_type": 0,
        "meta_classification_type": "U",
        "meta_norad_cat_id": 66458,
        "meta_element_set_no": 999,
        "meta_rev_at_epoch": 497,
        "meta_bstar": 0.0014931434,
        "meta_mean_motion_dot": 0.00062414,
        "meta_mean_motion_ddot": 0,
        "tle_line1": "1 66458U 25262C   25342.58335648  .00062414  00000+0  14931-2 0  9990",
        "tle_line2": "2 66458  43.0000  95.5303 0001258 266.0893 216.7158 15.40619989  4975"
      },
      "geometry": {
        "type": "Point",
        "coordinates": [
          -89.42029510639956,
          2.4699385589974585
        ]
      }
    },
    {
      "type": "Feature",
      "properties": {
        "norad_id": 66459,
        "name": "STARLINK-35449",
        "group": "last-30-days",
        "lat": -14.180675566410393,
        "lon": -71.09406878842601,
        "alt_km": 442.3683846682716,
        "timestamp": "2025-12-08T23:34:02.738846+00:00",
        "meta_object_name": "STARLINK-35449",
        "meta_object_id": "2025-262D",
        "meta_epoch": "2025-12-08T14:00:01.999872",
        "meta_mean_motion": 15.43304935,
        "meta_eccentricity": 0.00013236,
        "meta_inclination": 43.0005,
        "meta_ra_of_asc_node": 95.4768,
        "meta_arg_of_pericenter": 284.1194,
        "meta_mean_anomaly": 220.7127,
        "meta_ephemeris_type": 0,
        "meta_classification_type": "U",
        "meta_norad_cat_id": 66459,
        "meta_element_set_no": 999,
        "meta_rev_at_epoch": 497,
        "meta_bstar": -0.045385366,
        "meta_mean_motion_dot": -0.01859424,
        "meta_mean_motion_ddot": 0,
        "tle_line1": "1 66459U 25262D   25342.58335648 -.01859424  00000+0 -45385-1 0  9995",
        "tle_line2": "2 66459  43.0005  95.4768 0001323 284.1194 220.7127 15.43304935  4979"
      },
      "geometry": {
        "type": "Point",
        "coordinates": [
          -71.09406878842601,
          -14.180675566410393
        ]
      }
    },
    {
      "type": "Feature",
      "properties": {
        "norad_id": 66460,
        "name": "STARLINK-35424",
        "group": "last-30-days",
        "lat": -21.057923010203577,
        "lon": -62.44846844564829,
        "alt_km": 439.27089323420296,
        "timestamp": "2025-12-08T23:34:02.738856+00:00",
        "meta_object_name": "STARLINK-35424",
        "meta_object_id": "2025-262E",
        "meta_epoch": "2025-12-08T14:00:01.999872",
        "meta_mean_motion": 15.44699781,
        "meta_eccentricity": 0.00010754,
        "meta_inclination": 43.0002,
        "meta_ra_of_asc_node": 95.4552,
        "meta_arg_of_pericenter": 284.8133,
        "meta_mean_anomaly": 228.8972,
        "meta_ephemeris_type": 0,
        "meta_classification_type": "U",
        "meta_norad_cat_id": 66460,
        "meta_element_set_no": 999,
        "meta_rev_at_epoch": 497,
        "meta_bstar": -0.048443891,
        "meta_mean_motion_dot": -0.02057074,
        "meta_mean_motion_ddot": 0,
        "tle_line1": "1 66460U 25262E   25342.58335648 -.02057074  00000+0 -48444-1 0  9998",
        "tle_line2": "2 66460  43.0002  95.4552 0001075 284.8133 228.8972 15.44699781  4977"
      },
      "geometry": {
        "type": "Point",
        "coordinates": [
          -62.44846844564829,
          -21.057923010203577
        ]
      }
    },
    {
      "type": "Feature",
      "properties": {
        "norad_id": 66461,
        "name": "STARLINK-35132",
        "group": "last-30-days",
        "lat": -26.671050615676748,
        "lon": -54.25769444102469,
        "alt_km": 435.6575704903107,
        "timestamp": "2025-12-08T23:34:02.738868+00:00",
        "meta_object_name": "STARLINK-35132",
        "meta_object_id": "2025-262F",
        "meta_epoch": "2025-12-08T14:00:01.999872",
        "meta_mean_motion": 15.46033015,
        "meta_eccentricity": 0.00012746,
        "meta_inclination": 43.0003,
        "meta_ra_of_asc_node": 95.4367,
        "meta_arg_of_pericenter": 288.5842,
        "meta_mean_anomaly": 232.5906,
        "meta_ephemeris_type": 0,
        "meta_classification_type": "U",
        "meta_norad_cat_id": 66461,
        "meta_element_set_no": 999,
        "meta_rev_at_epoch": 497,
        "meta_bstar": -0.046303154,
        "meta_mean_motion_dot": -0.02058946,
        "meta_mean_motion_ddot": 0,
        "tle_line1": "1 66461U 25262F   25342.58335648 -.02058946  00000+0 -46303-1 0  9990",
        "tle_line2": "2 66461  43.0003  95.4367 0001274 288.5842 232.5906 15.46033015  4975"
      },
      "geometry": {
        "type": "Point",
        "coordinates": [
          -54.25769444102469,
          -26.671050615676748
        ]
      }
    },
    {
      "type": "Feature",
      "properties": {
        "norad_id": 66462,
        "name": "STARLINK-35499",
        "group": "last-30-days",
        "lat": -31.036719914492547,
        "lon": -46.67604307601344,
        "alt_km": 431.87183370706134,
        "timestamp": "2025-12-08T23:34:02.738878+00:00",
        "meta_object_name": "STARLINK-35499",
        "meta_object_id": "2025-262G",
        "meta_epoch": "2025-12-08T14:00:01.999872",
        "meta_mean_motion": 15.47375194,
        "meta_eccentricity": 0.00010618,
        "meta_inclination": 43.0002,
        "meta_ra_of_asc_node": 95.4208,
        "meta_arg_of_pericenter": 282.1645,
        "meta_mean_anomaly": 245.0557,
        "meta_ephemeris_type": 0,
        "meta_classification_type": "U",
        "meta_norad_cat_id": 66462,
        "meta_element_set_no": 999,
        "meta_rev_at_epoch": 497,
        "meta_bstar": -0.044701661,
        "meta_mean_motion_dot": -0.02080363,
        "meta_mean_motion_ddot": 0,
        "tle_line1": "1 66462U 25262G   25342.58335648 -.02080363  00000+0 -44702-1 0  9990",
        "tle_line2": "2 66462  43.0002  95.4208 0001061 282.1645 245.0557 15.47375194  4973"
      },
      "geometry": {
        "type": "Point",
        "coordinates": [
          -46.67604307601344,
          -31.036719914492547
        ]
      }
    }
  ]
}